     2.100          NAVIGATION                              RINEX VERSION / TYPE
fic2rin                                 02/28/2017 00:32:54 PGM / RUN BY / DATE
                                                            END OF HEADER
 1 17  2 27  2  0  0.0  .501638278365D-04  .909494701773D-12  .000000000000D+00
     .450000000000D+02 -.920937500000D+02  .467090884782D-08  .290411896410D+00
    -.476650893688D-05  .625969911925D-02  .433623790741D-05  .515369450378D+04
     .936000000000D+05  .745058059692D-08 -.886215591465D+00  .484287738800D-07
     .966603410980D+00  .294968750000D+03  .539663965067D+00 -.846963850873D-08
    -.538593863168D-09  .100000000000D+01  .193800000000D+04  .000000000000D+00
     .240000000000D+01  .000000000000D+00  .512227416039D-08  .450000000000D+02
     .864060000000D+05  .400000000000D+01
 2 17  2 27  2  0  0.0  .468472484499D-03 -.693489710102D-11  .000000000000D+00
     .101000000000D+03 -.877812500000D+02  .529772067133D-08  .679185003376D+00
    -.450760126114D-05  .166949611157D-01  .443682074547D-05  .515373662567D+04
     .936000000000D+05 -.244006514549D-06 -.937675856135D+00  .745058059692D-07
     .945453999920D+00  .291687500000D+03 -.201453996012D+01 -.894144387560D-08
    -.654312969047D-09  .100000000000D+01  .193800000000D+04  .000000000000D+00
     .240000000000D+01  .000000000000D+00 -.204890966415D-07  .101000000000D+03
     .864060000000D+05  .400000000000D+01
 3 17  2 27  2  0  0.0 -.107526779175D-03  .000000000000D+00  .000000000000D+00
     .310000000000D+02 -.308437500000D+02  .415553023737D-08 -.607959359330D+00
    -.171177089214D-05  .481018680148D-03  .131670385599D-04  .515380300713D+04
     .936000000000D+05  .167638063431D-07  .155640120704D+00  .316649675369D-07
     .960226597886D+00  .127281250000D+03  .365863449967D+00 -.784889836669D-08
     .289297764699D-10  .100000000000D+01  .193800000000D+04  .000000000000D+00
     .240000000000D+01  .000000000000D+00  .186264514923D-08  .310000000000D+02
     .864060000000D+05  .400000000000D+01
 5 17  2 27  2  0  0.0 -.584968365729D-04  .204636307899D-11  .000000000000D+00
     .520000000000D+02 -.331875000000D+02  .439875465436D-08 -.305005812538D+01
    -.172853469849D-05  .489621493034D-02  .141058117151D-04  .515370317841D+04
     .936000000000D+05  .167638063431D-07  .140024500102D+00 -.130385160446D-07
     .947210474455D+00  .100343750000D+03  .554178539395D+00 -.788639992878D-08
     .112147528538D-09  .100000000000D+01  .193800000000D+04  .000000000000D+00
     .240000000000D+01  .000000000000D+00 -.107102096081D-07  .520000000000D+02
     .864060000000D+05  .400000000000D+01
 6 17  2 27  2  0  0.0  .317824073136D-03  .500222085975D-11  .000000000000D+00
     .290000000000D+02 -.990000000000D+02  .463197865479D-08  .582128036952D+00
    -.515021383762D-05  .702520832419D-03  .495277345181D-05  .515362439156D+04
     .936000000000D+05 -.428408384323D-07 -.894603782330D+00  .223517417908D-07
     .966384321443D+00  .288468750000D+03 -.133311833202D+01 -.836677708128D-08
    -.542522598244D-09  .100000000000D+01  .193800000000D+04  .000000000000D+00
     .240000000000D+01  .000000000000D+00  .419095158577D-08  .290000000000D+02
     .864060000000D+05  .400000000000D+01
 7 17  2 27  2  0  0.0  .378544908017D-03 -.386535248253D-11  .000000000000D+00
     .650000000000D+02 -.615000000000D+02  .482698677766D-08 -.318799539395D+00
    -.310502946377D-05  .101700088708D-01  .635161995888D-05  .515359919167D+04
     .936000000000D+05  .353902578354D-07  .227154365279D+01  .156462192535D-06
     .963096061960D+00  .258250000000D+03 -.261422264976D+01 -.840820737844D-08
    -.471091051405D-09  .100000000000D+01  .193800000000D+04  .000000000000D+00
     .240000000000D+01  .000000000000D+00 -.111758708954D-07  .650000000000D+02
     .864060000000D+05  .400000000000D+01
 8 17  2 27  2  0  0.0 -.509722158313D-04 -.136424205266D-11  .000000000000D+00
     .340000000000D+02  .928437500000D+02  .476305554324D-08  .307072118347D+01
     .496208667755D-05  .254060421139D-02  .436604022980D-05  .515359517097D+04
     .936000000000D+05 -.316649675369D-07 -.194922335234D+01  .135973095894D-06
     .965681093797D+00  .298281250000D+03 -.834935278886D+00 -.837927760197D-08
     .403945397376D-09  .100000000000D+01  .193800000000D+04  .000000000000D+00
     .240000000000D+01  .000000000000D+00  .465661287308D-08  .340000000000D+02
     .864060000000D+05  .400000000000D+01
 9 17  2 27  2  0  0.0  .311720184982D-03  .761701812735D-11  .000000000000D+00
     .160000000000D+02  .671562500000D+02  .494413451448D-08  .257748747479D+01
     .354088842869D-05  .917590572499D-03  .558979809284D-05  .515367838669D+04
     .936000000000D+05 -.186264514923D-07  .119245935995D+01  .689178705215D-07
     .953582560861D+00  .268031250000D+03  .178997982741D+01 -.835856245339D-08
     .545379860117D-09  .100000000000D+01  .193800000000D+04  .000000000000D+00
     .240000000000D+01  .000000000000D+00  .139698386192D-08  .160000000000D+02
     .864060000000D+05  .400000000000D+01
10 17  2 27  2  0  0.0 -.101066194475D-03  .466116034659D-11  .000000000000D+00
     .500000000000D+02 -.418437500000D+02  .404516849750D-08 -.182613160235D+01
    -.221282243729D-05  .228112703189D-02  .134482979774D-04  .515368294144D+04
     .936000000000D+05 -.949949026108D-07  .151864541265D+00 -.409781932831D-07
     .960412951706D+00  .121593750000D+03 -.286727924023D+01 -.768496296670D-08
     .102861427448D-09  .100000000000D+01  .193800000000D+04  .000000000000D+00
     .240000000000D+01  .000000000000D+00  .232830643654D-08  .500000000000D+02
     .864060000000D+05  .400000000000D+01
11 17  2 27  2  0  0.0 -.672030262649D-03 -.204636307899D-11  .000000000000D+00
     .900000000000D+02 -.309687500000D+02  .655241579156D-08 -.308830849873D+00
    -.148452818394D-05  .166339667048D-01  .130757689476D-05  .515369703674D+04
     .936000000000D+05 -.180676579475D-06 -.128261780890D+01  .204890966415D-07
     .899513993717D+00  .320687500000D+03  .162225791394D+01 -.970147553397D-08
    -.142148778210D-09  .100000000000D+01  .193800000000D+04  .000000000000D+00
     .340000000000D+01  .000000000000D+00 -.121071934700D-07  .900000000000D+02
     .864060000000D+05  .400000000000D+01
12 17  2 27  2  0  0.0  .387683976442D-03 -.454747350886D-12  .000000000000D+00
     .530000000000D+02  .512500000000D+02  .371658338204D-08 -.921206042055D+00
     .274553894997D-05  .648327555973D-02  .141076743603D-04  .515358231163D+04
     .936000000000D+05  .102445483208D-06 -.292991098518D+01  .987201929092D-07
     .989991826939D+00  .124875000000D+03  .798096767774D+00 -.757317259589D-08
     .821462788651D-11  .100000000000D+01  .193800000000D+04  .000000000000D+00
     .240000000000D+01  .000000000000D+00 -.121071934700D-07  .530000000000D+02
     .864060000000D+05  .400000000000D+01
13 17  2 27  2  0  0.0 -.715996138752D-04 -.170530256582D-11  .000000000000D+00
     .720000000000D+02  .521562500000D+02  .477234164433D-08  .709912668678D+00
     .267848372459D-05  .405202794354D-02  .501982867718D-05  .515367839622D+04
     .936000000000D+05  .167638063431D-07  .131739666156D+01 -.558793544769D-07
     .969631022350D+00  .285718750000D+03  .184430095858D+01 -.836927718542D-08
     .492877673191D-09  .100000000000D+01  .193800000000D+04  .000000000000D+00
     .240000000000D+01  .000000000000D+00 -.111758708954D-07  .720000000000D+02
     .864060000000D+05  .400000000000D+01
14 17  2 27  2  0  0.0 -.605536624789D-04 -.159161572810D-11  .000000000000D+00
     .960000000000D+02  .583750000000D+02  .475198365348D-08  .206077039652D+01
     .303983688354D-05  .872405664995D-02  .573322176933D-05  .515362206459D+04
     .936000000000D+05 -.242143869400D-07  .127851998664D+01 -.240281224251D-06
     .962170868679D+00  .267718750000D+03 -.195883389172D+01 -.820462746995D-08
     .585738684082D-09  .100000000000D+01  .193800000000D+04  .000000000000D+00
     .240000000000D+01  .000000000000D+00 -.931322574615D-08  .960000000000D+02
     .864060000000D+05  .400000000000D+01
15 17  2 27  2  0  0.0 -.344290398061D-03 -.909494701773D-12  .000000000000D+00
     .160000000000D+02  .699062500000D+02  .556344602557D-08  .158280489612D+01
     .366382300854D-05  .906949292403D-02  .654906034470D-05  .515374840546D+04
     .936000000000D+05 -.763684511185D-07  .113303991100D+01  .726431608200D-07
     .929278399147D+00  .237656250000D+03  .575202579839D+00 -.873036365469D-08
     .536093759028D-09  .100000000000D+01  .193800000000D+04  .000000000000D+00
     .240000000000D+01  .000000000000D+00 -.107102096081D-07  .160000000000D+02
     .864060000000D+05  .400000000000D+01
16 17  2 27  2  0  0.0  .274828635156D-04  .102318153949D-11  .000000000000D+00
     .660000000000D+02  .414375000000D+02  .361479342780D-08 -.288673003516D+01
     .208802521229D-05  .922767037991D-02  .139027833939D-04  .515366062927D+04
     .936000000000D+05 -.115483999252D-06 -.291108648596D+01 -.128522515297D-06
     .990471374411D+00  .128968750000D+03  .402024022897D+00 -.737852163076D-08
     .357157734196D-10  .100000000000D+01  .193800000000D+04  .000000000000D+00
     .240000000000D+01  .000000000000D+00 -.107102096081D-07  .660000000000D+02
     .864060000000D+05  .400000000000D+01
17 17  2 27  2  0  0.0 -.189827755094D-03  .125055521494D-11  .000000000000D+00
     .103000000000D+03  .863437500000D+02  .443089885044D-08  .236224375154D+01
     .427104532719D-05  .116703049280D-01  .333040952682D-05  .515358349609D+04
     .936000000000D+05  .134110450745D-06 -.189285748447D+01 -.160187482834D-06
     .978850062908D+00  .320750000000D+03 -.185918386935D+01 -.809533720329D-08
     .303226916332D-09  .100000000000D+01  .193800000000D+04  .000000000000D+00
     .340000000000D+01  .000000000000D+00 -.107102096081D-07  .103000000000D+03
     .864060000000D+05  .400000000000D+01
